STARLINK-36052          
1 66605U 25270T   26067.70515912  .00027043  00000+0  98874-3 0  9994
2 66605  43.0007  61.8777 0000178 336.7746  23.3097 15.27576761 17556
2025-313BE              
1 67482U 25313BE  26068.69721505  .00077178  00000+0  26504-2 0  9996
2 67482  97.3989 145.3568 0007208 335.3714  24.7181 15.29801687  7972
